NORAD_CAT_ID,OBJECT_NAME,OBJECT_TYPE,EPOCH,MEAN_MOTION,ECCENTRICITY,INCLINATION,RA_OF_ASC_NODE,ARG_OF_PERICENTER,MEAN_ANOMALY,BSTAR,MEAN_MOTION_DOT,MEAN_MOTION_DDOT,TLE_LINE0,TLE_LINE1,TLE_LINE2,SEMIMAJOR_AXIS,PERIOD,APOGEE,PERIGEE,DECAYED
56468.0,STARLINK-5998,PAYLOAD,2024-02-21 19:11:24,14.98328558,0.0003027,69.9993,227.447,267.4199,92.6614,3.3537e-05,3.07e-06,0.0,0 STARLINK-5998,1 56468U 23064W   24052.79958902  .00000307  00000-0  33537-4 0  9991,2 56468  69.9993 227.4470 0003027 267.4199  92.6614 14.98328558 43730,6950.197,96.107,574.166,569.959,0.0
56468.0,STARLINK-5998,PAYLOAD,2024-02-21 20:47:32,14.98328981,0.000302,69.9993,227.2787,266.8429,93.2384,4.0177e-05,3.86e-06,0.0,0 STARLINK-5998,1 56468U 23064W   24052.86634866  .00000386  00000-0  40177-4 0  9994,2 56468  69.9993 227.2787 0003020 266.8429  93.2384 14.98328981 43383,6950.196,96.107,574.16,569.962,0.0
56468.0,STARLINK-5998,PAYLOAD,2024-02-22 14:25:01,14.98322741,0.0003132,69.9989,225.4263,266.1322,93.9479,0.00024091,2.782e-05,0.0,0 STARLINK-5998,1 56468U 23064W   24053.60070863  .00002782  00000-0  24091-3 0  9996,2 56468  69.9989 225.4263 0003132 266.1322  93.9479 14.98322741 43498,6950.215,96.107,574.257,569.904,0.0
56468.0,STARLINK-5998,PAYLOAD,2024-02-22 19:13:25,14.98328315,0.0003147,69.9988,224.921,266.1446,93.9354,0.00023634,2.728e-05,0.0,0 STARLINK-5998,1 56468U 23064W   24053.80098568  .00002728  00000-0  23634-3 0  9992,2 56468  69.9988 224.9210 0003147 266.1446  93.9354 14.98328315 43884,6950.198,96.107,574.25,569.876,0.0
56468.0,STARLINK-5998,PAYLOAD,2024-02-22 20:49:33,14.98329612,0.0003138,69.9989,224.7527,266.2229,93.8571,0.00024513,2.833e-05,0.0,0 STARLINK-5998,1 56468U 23064W   24053.86774464  .00002833  00000-0  24513-3 0  9998,2 56468  69.9989 224.7527 0003138 266.2229  93.8571 14.98329612 43537,6950.194,96.107,574.24,569.878,0.0
56468.0,STARLINK-5998,PAYLOAD,2024-02-23 14:27:01,14.98337391,0.0003097,69.9991,222.9012,266.6851,93.3954,6.7126e-05,7.08e-06,0.0,0 STARLINK-5998,1 56468U 23064W   24054.60210279  .00000708  00000-0  67126-4 0  9997,2 56468  69.9991 222.9012 0003097 266.6851  93.3954 14.98337391 43643,6950.17,96.107,574.188,569.883,0.0
56468.0,STARLINK-5998,PAYLOAD,2024-02-23 19:15:25,14.9834056,0.0003098,69.9992,222.3965,267.2282,92.8523,6.0774e-05,6.32e-06,0.0,0 STARLINK-5998,1 56468U 23064W   24054.80237976  .00000632  00000-0  60774-4 0  9990,2 56468  69.9992 222.3965 0003098 267.2282  92.8523 14.98340560 44033,6950.16,96.106,574.178,569.872,0.0
56468.0,STARLINK-5998,PAYLOAD,2024-02-23 20:51:33,14.9834143,0.0003089,69.9993,222.2282,267.1862,92.8944,6.9049e-05,7.31e-06,0.0,0 STARLINK-5998,1 56468U 23064W   24054.86913847  .00000731  00000-0  69049-4 0  9998,2 56468  69.9993 222.2282 0003089 267.1862  92.8944 14.98341430 43682,6950.158,96.106,574.169,569.876,0.0
56468.0,STARLINK-5998,PAYLOAD,2024-02-24 14:29:02,14.98340378,0.000305,69.9993,220.3762,267.2482,92.8328,-1.4264e-06,-1.1e-06,0.0,0 STARLINK-5998,1 56468U 23064W   24055.60349578 -.00000110  00000-0 -14264-5 0  9998,2 56468  69.9993 220.3762 0003050 267.2482  92.8328 14.98340378 43799,6950.161,96.106,574.146,569.906,0.0
56468.0,STARLINK-5998,PAYLOAD,2024-02-24 20:53:33,14.98344566,0.0003079,69.9993,219.7033,268.2665,91.8141,8.912e-06,1.3e-07,0.0,0 STARLINK-5998,1 56468U 23064W   24055.87053060  .00000013  00000-0  89120-5 0  9998,2 56468  69.9993 219.7033 0003079 268.2665  91.8141 14.98344566 43837,6950.148,96.106,574.153,569.873,0.0
56468.0,STARLINK-5998,PAYLOAD,2024-02-25 11:18:46,14.9833595,0.0002879,69.9995,218.1881,269.2662,90.8167,-6.6661e-05,-8.88e-06,0.0,0 STARLINK-5998,1 56468U 23064W   24056.47137492 -.00000888  00000-0 -66661-4 0  9993,2 56468  69.9995 218.1881 0002879 269.2662  90.8167 14.98335950 44282,6950.174,96.107,574.04,570.039,0.0
56468.0,STARLINK-5998,PAYLOAD,2024-02-25 14:31:02,14.98335999,0.000288,69.9996,217.8514,269.2788,90.8041,-6.1866e-05,-8.31e-06,0.0,0 STARLINK-5998,1 56468U 23064W   24056.60489412 -.00000831  00000-0 -61866-4 0  9990,2 56468  69.9996 217.8514 0002880 269.2788  90.8041 14.98335999 43949,6950.174,96.107,574.041,570.038,0.0
56468.0,STARLINK-5998,PAYLOAD,2024-02-25 20:55:34,14.9833792,0.000294,69.9996,217.1784,269.3558,90.7265,-4.771e-05,-6.62e-06,0.0,0 STARLINK-5998,1 56468U 23064W   24056.87193110 -.00000662  00000-0 -47710-4 0  9990,2 56468  69.9996 217.1784 0002940 269.3558  90.7265 14.98337920 43981,6950.168,96.106,574.077,569.99,0.0
56468.0,STARLINK-5998,PAYLOAD,2024-02-26 11:20:48,14.98325556,0.0002759,70.0001,215.6645,269.4016,90.6827,-4.1606e-05,-5.89e-06,0.0,0 STARLINK-5998,1 56468U 23064W   24057.47277795 -.00000589  00000-0 -41606-4 0  9995,2 56468  70.0001 215.6645 0002759 269.4016  90.6827 14.98325556 44434,6950.207,96.107,573.989,570.154,0.0
56468.0,STARLINK-5998,PAYLOAD,2024-02-26 14:33:04,14.98306136,0.0002921,69.9999,215.3278,266.7831,93.2994,0.00025078,2.899e-05,0.0,0 STARLINK-5998,1 56468U 23064W   24057.60630322  .00002899  00000-0  25078-3 0  9997,2 56468  69.9999 215.3278 0002921 266.7831  93.2994 14.98306136 44091,6950.267,96.109,574.162,570.102,0.0
56468.0,STARLINK-5998,PAYLOAD,2024-02-26 20:57:36,14.98323085,0.0002412,69.9999,214.6545,269.0987,90.9896,-1.2845e-05,-2.46e-06,0.0,0 STARLINK-5998,1 56468U 23064W   24057.87333990 -.00000246  00000-0 -12845-4 0  9992,2 56468  69.9999 214.6545 0002412 269.0987  90.9896 14.98323085 44135,6950.214,96.107,573.756,570.403,0.0
56468.0,STARLINK-5998,PAYLOAD,2024-02-27 11:22:48,14.98329695,0.0002787,69.9999,213.1397,265.9681,94.1159,-1.8375e-05,-3.12e-06,0.0,0 STARLINK-5998,1 56468U 23064W   24058.47417529 -.00000312  00000-0 -18375-4 0  9998,2 56468  69.9999 213.1397 0002787 265.9681  94.1159 14.98329695 44585,6950.194,96.107,573.996,570.122,0.0
56468.0,STARLINK-5998,PAYLOAD,2024-02-27 14:35:04,14.98329182,0.0002791,69.9999,212.8031,265.6522,94.4318,-2.1773e-05,-3.53e-06,0.0,0 STARLINK-5998,1 56468U 23064W   24058.60769575 -.00000353  00000-0 -21773-4 0  9995,2 56468  69.9999 212.8031 0002791 265.6522  94.4318 14.98329182 44246,6950.195,96.107,574.0,570.121,0.0
56468.0,STARLINK-5998,PAYLOAD,2024-02-27 19:23:28,14.9833067,0.0002822,69.9998,212.298,268.6292,91.4544,-1.4636e-06,-1.1e-06,0.0,0 STARLINK-5998,1 56468U 23064W   24058.80797447 -.00000110  00000-0 -14636-5 0  9998,2 56468  69.9998 212.2980 0002822 268.6292  91.4544 14.98330670 44279,6950.191,96.107,574.017,570.094,0.0
56468.0,STARLINK-5998,PAYLOAD,2024-02-28 13:00:57,14.98325915,0.0002875,69.9996,210.4459,270.0408,90.0421,6.9711e-05,7.39e-06,0.0,0 STARLINK-5998,1 56468U 23064W   24059.54233595  .00000739  00000-0  69711-4 0  9997,2 56468  69.9996 210.4459 0002875 270.0408  90.0421 14.98325915 44749,6950.206,96.107,574.069,570.072,0.0
56468.0,STARLINK-5998,PAYLOAD,2024-02-28 14:37:05,14.98325696,0.0002881,69.9997,210.2775,269.9421,90.1408,6.6847e-05,7.05e-06,0.0,0 STARLINK-5998,1 56468U 23064W   24059.60909630  .00000705  00000-0  66847-4 0  9994,2 56468  69.9997 210.2775 0002881 269.9421  90.1408 14.98325696 44391,6950.206,96.107,574.074,570.069,0.0
56468.0,STARLINK-5998,PAYLOAD,2024-02-28 19:25:30,14.98326956,0.000293,69.9997,209.7725,269.7528,90.3295,4.7931e-05,4.79e-06,0.0,0 STARLINK-5998,1 56468U 23064W   24059.80937630  .00000479  00000-0  47931-4 0  9998,2 56468  69.9997 209.7725 0002930 269.7528  90.3295 14.98326956 44420,6950.202,96.107,574.104,570.031,0.0
56468.0,STARLINK-5998,PAYLOAD,2024-02-29 14:39:06,14.98332476,0.000303,69.9997,207.7524,270.4091,89.6721,8.2052e-06,5e-08,0.0,0 STARLINK-5998,1 56468U 23064W   24060.61049375  .00000005  00000-0  82052-5 0  9998,2 56468  69.9997 207.7524 0003030 270.4091  89.6721 14.98332476 44543,6950.185,96.107,574.156,569.944,0.0
56468.0,STARLINK-5998,PAYLOAD,2024-02-29 19:27:30,14.98334495,0.0003031,69.9998,207.2473,269.9724,90.1088,2.9176e-05,2.55e-06,0.0,0 STARLINK-5998,1 56468U 23064W   24060.81077128  .00000255  00000-0  29176-4 0  9991,2 56468  69.9998 207.2473 0003031 269.9724  90.1088 14.98334495 44938,6950.179,96.107,574.151,569.937,0.0
56468.0,STARLINK-5998,PAYLOAD,2024-03-01 13:04:59,14.98331784,0.000306,70.0,205.3961,270.1135,89.9674,1.8503e-06,-7.1e-07,0.0,0 STARLINK-5998,1 56468U 23064W   24061.54513224 -.00000071  00000-0  18503-5 0  9994,2 56468  70.0000 205.3961 0003060 270.1135  89.9674 14.98331784 44685,6950.187,96.107,574.179,569.926,0.0
56468.0,STARLINK-5998,PAYLOAD,2024-03-01 19:29:31,14.98333745,0.0003088,70.0001,204.7235,271.0462,89.0343,2.213e-05,1.71e-06,0.0,0 STARLINK-5998,1 56468U 23064W   24061.81216996  .00000171  00000-0  22130-4 0  9990,2 56468  70.0001 204.7235 0003088 271.0462  89.0343 14.98333745 45084,6950.181,96.107,574.193,569.9,0.0
56468.0,STARLINK-5998,PAYLOAD,2024-03-02 13:07:00,14.98329292,0.0003055,70.0004,202.8721,271.0068,89.0741,-3.3428e-05,-4.92e-06,0.0,0 STARLINK-5998,1 56468U 23064W   24062.54653362 -.00000492  00000-0 -33428-4 0  9993,2 56468  70.0004 202.8721 0003055 271.0068  89.0741 14.98329292 44838,6950.195,96.107,574.183,569.937,0.0
56468.0,STARLINK-5998,PAYLOAD,2024-03-02 19:31:32,14.98333275,0.0002916,70.0007,202.2,269.0145,91.068,-1.2047e-05,-2.37e-06,0.0,0 STARLINK-5998,1 56468U 23064W   24062.81357010 -.00000237  00000-0 -12047-4 0  9995,2 56468  70.0007 202.2000 0002916 269.0145  91.0680 14.98333275 45239,6950.183,96.107,574.074,570.021,0.0
56468.0,STARLINK-5998,PAYLOAD,2024-03-03 01:56:05,14.98326802,0.0002887,70.0008,201.5264,269.7279,90.355,-5.4846e-05,-7.47e-06,0.0,0 STARLINK-5998,1 56468U 23064W   24063.08061527 -.00000747  00000-0 -54846-4 0  9999,2 56468  70.0008 201.5264 0002887 269.7279  90.3550 14.98326802 45276,6950.203,96.107,574.074,570.061,0.0
56468.0,STARLINK-5998,PAYLOAD,2024-03-03 13:09:01,14.98326192,0.0002877,70.0007,200.3478,271.3002,88.7827,-5.2507e-05,-7.19e-06,0.0,0 STARLINK-5998,1 56468U 23064W   24063.54793619 -.00000719  00000-0 -52507-4 0  9995,2 56468  70.0007 200.3478 0002877 271.3002  88.7827 14.98326192 44988,6950.205,96.107,574.069,570.07,0.0
